{
  "norad_id": 68335,
  "name": "STARLINK-37217",
  "history": [
    {
      "epoch": "2026-03-31T16:00:01.999584Z",
      "apogee_km": 328.2654516935054,
      "perigee_km": 327.12143701969853,
      "latitude_deg": -53.2845367070015,
      "longitude_deg": 90.90640795151761,
      "height_km": 346.77296766675283,
      "semi_major_axis_km": 6705.830444356601,
      "eccentricity": 8.53e-05,
      "inclination_deg": 53.1596,
      "raan_deg": 252.6285,
      "arg_perigee_deg": 88.9874,
      "mean_anomaly_deg": 179.4052,
      "mean_motion_rev_day": 15.80971022
    }
  ]
}